kim,branch,state,city,address,zipcode,longitude,latitude,phone
스타벅스,이태원점,서울특별시,용산구,서울특별시 용산구 이태원로 188,140200,126.9947813,37.53430294,02-567-5678
스타벅스,신사2점,서울특별시,서초구,서울특별시 서초구 강남대로 581,137904,127.0197628,37.51366263,02-567-5679
스타벅스,삼성역점,서울특별시,강남구,서울특별시 강남구 테헤란로103길 9,135090,127.0638782,37.51003785,02-567-5680
스타벅스,신림포도몰점,서울특별시,관악구,서울특별시 관악구 신림로 330,151930,126.9302159,37.48384475,02-567-5681
스타벅스,천호동점,서울특별시,강동구,서울특별시 강동구 천호대로157길 19,134020,127.1270214,37.53878758,02-567-5682
스타벅스,신사역점,서울특별시,강남구,서울특별시 강남구 도산대로 108,135010,127.0206347,37.5161838,02-567-5683
스타벅스,문래역점,서울특별시,영등포구,서울특별시 영등포구 당산로 34,150835,126.8964787,37.51744978,02-567-5684
스타벅스,서강대점,서울특별시,마포구,서울특별시 마포구 백범로 23,121854,126.9375433,37.55242638,02-567-5685
스타벅스,까치산역점,서울특별시,강서구,서울특별시 강서구 강서로13길 3,157010,126.846036,37.53228534,02-567-5686
스타벅스,영풍문고점,서울특별시,종로구,서울특별시 종로구 청계천로 41,110752,126.9821598,37.56965992,02-567-5687
스타벅스,코엑스몰점,서울특별시,강남구,서울특별시 강남구 영동대로 513,135798,127.0571003,37.5129394,02-567-5688
스타벅스,보라매타운점,서울특별시,동작구,서울특별시 동작구 보라매로5길 43,156728,126.9233568,37.49142334,02-567-5689
스타벅스,여의도일신점,서울특별시,영등포구,서울특별시 영등포구 은행로 11,150872,126.9202192,37.52790507,02-567-5690
스타벅스,월곡역점,서울특별시,성북구,서울특별시 성북구 화랑로 76,136743,127.0404418,37.60181969,02-567-5691
스타벅스,몬테소리점,서울특별시,서초구,서울특별시 서초구 강남대로 399,137070,127.0268289,37.49825898,02-567-5692
스타벅스,한티역점,서울특별시,강남구,서울특별시 강남구 도곡로 408,135280,127.0552134,37.4966152,02-567-5693
스타벅스,청담공원점,서울특별시,강남구,서울특별시 강남구 학동로 506,135090,127.0514396,37.51868785,02-567-5694
스타벅스,서초동점,서울특별시,서초구,서울특별시 서초구 남부순환로339길 64,137070,127.0215728,37.48591615,02-567-5695
스타벅스,이대이씨씨점,서울특별시,서대문구,서울특별시 서대문구 이화여대길 52,120750,126.9503015,37.56428106,02-567-5696
스타벅스,순화동에이스점,서울특별시,중구,서울특별시 중구 통일로 92,100712,126.9692029,37.5635826,02-567-5697
스타벅스,신촌대로점,서울특별시,서대문구,서울특별시 서대문구 신촌로 121,120833,126.939278,37.55619932,02-567-5698
스타벅스,문화일보점,서울특별시,중구,서울특별시 중구 새문안로 22,100723,126.9686221,37.56711862,02-567-5699
스타벅스,순천향입구점,서울특별시,용산구,서울특별시 용산구 대사관로 67,140887,127.0056326,37.53341267,02-567-5700
스타벅스,강남구청역점,서울특별시,강남구,서울특별시 강남구 선릉로 669,135010,127.0412398,37.51660516,02-567-5701
스타벅스,등촌점,서울특별시,강서구,서울특별시 강서구 공항대로 329,157030,126.8443343,37.5582365,02-567-5702
스타벅스,가양이마트점,서울특별시,강서구,서울특별시 강서구 양천로 559,157200,126.8617991,37.55818091,02-567-5703
스타벅스,역삼초교사거리점,서울특별시,강남구,서울특별시 강남구 역삼로 123,135080,127.0330005,37.49412876,02-567-5704
스타벅스,안암역점,서울특별시,성북구,서울특별시 성북구 인촌로 102-2,136075,127.0307477,37.5860984,02-567-5705
스타벅스,구의디티점,서울특별시,광진구,서울특별시 광진구 광나루로 519,143200,127.0871794,37.54529828,02-567-5706
스타벅스,문래동점,서울특별시,영등포구,서울특별시 영등포구 선유로 64,150836,126.8896814,37.5196567,02-567-5707
스타벅스,아시아선수촌점,서울특별시,송파구,서울특별시 송파구 백제고분로 69,138220,127.0790291,37.51052638,02-567-5708
스타벅스,신당역점,서울특별시,중구,서울특별시 중구 퇴계로 385,100880,127.0143311,37.56539165,02-567-5709
스타벅스,대치역점,서울특별시,강남구,서울특별시 강남구 남부순환로 2936,135280,127.0619041,37.49334362,02-567-5710
스타벅스,묵동이마트점,서울특별시,중랑구,서울특별시 중랑구 동일로 932,131757,127.0775414,37.61382905,02-567-5711
스타벅스,남산단암점,서울특별시,중구,서울특별시 중구 소월로 10,100704,126.9753958,37.5585276,02-567-5712
스타벅스,내방역점,서울특별시,서초구,서울특별시 서초구 방배로 184,137060,126.9924576,37.49001452,02-567-5713
스타벅스,고대안암병원점,서울특별시,성북구,서울특별시 성북구 안암로 145,136701,127.0317018,37.58848499,02-567-5714
스타벅스,잠실역점,서울특별시,송파구,서울특별시 송파구 송파대로 562,138728,127.0995353,37.51532494,02-567-5715
스타벅스,삼성현대힐점,서울특별시,강남구,서울특별시 강남구 삼성로 605,135090,127.0527047,37.51347189,02-567-5716
스타벅스,수서점,서울특별시,강남구,서울특별시 강남구 밤고개로1길 10,135539,127.1018421,37.48801336,02-567-5717
스타벅스,을지로입구역점,서울특별시,중구,서울특별시 중구 을지로 50,100845,126.9833126,37.56563319,02-567-5718
스타벅스,서울세관사거리점,서울특별시,강남구,서울특별시 강남구 언주로 650,135010,127.0357413,37.51491147,02-567-5719
스타벅스,북촌로점,서울특별시,종로구,서울특별시 종로구 북촌로4길 23,110801,126.9864535,37.57943711,02-567-5720
스타벅스,역삼포스코점,서울특별시,강남구,서울특별시 강남구 테헤란로 134,135080,127.0337924,37.49937038,02-567-5721
스타벅스,자양점,서울특별시,광진구,서울특별시 광진구 능동로 50,143190,127.0691588,37.53566952,02-567-5722
스타벅스,신논현역점,서울특별시,서초구,서울특별시 서초구 강남대로 483,137040,127.023627,37.50531485,02-567-5723
스타벅스,수유역점,서울특별시,강북구,서울특별시 강북구 도봉로 342,142060,127.0261078,37.63802308,02-567-5724
스타벅스,신촌아트레온점,서울특별시,서대문구,서울특별시 서대문구 신촌로 129,120833,126.9403142,37.55655102,02-567-5725
스타벅스,서래마을입구점,서울특별시,서초구,서울특별시 서초구 서래로 48,137040,126.9985423,37.49925701,02-567-5726
스타벅스,장한평역점,서울특별시,동대문구,서울특별시 동대문구 장한로 10,130100,127.0654766,37.56234757,02-567-5727
스타벅스,한솔빌딩점,서울특별시,강남구,서울특별시 강남구 테헤란로 142,135983,127.0349412,37.49974019,02-567-5728
스타벅스,서울아트센터점,서울특별시,서초구,서울특별시 서초구 남부순환로 2395,137070,127.0123471,37.48066733,02-567-5729
스타벅스,대명거리점,서울특별시,종로구,서울특별시 종로구 대명길 5,110524,127.0011396,37.58351787,02-567-5730
스타벅스,동숭로아트점,서울특별시,종로구,서울특별시 종로구 동숭길 110,110809,127.003887,37.58296442,02-567-5731
스타벅스,파미에파크점,서울특별시,서초구,서울특별시 서초구 사평대로 205,137040,127.0078261,37.50448036,02-567-5732
스타벅스,가로수길점,서울특별시,강남구,서울특별시 강남구 논현로175길 94,135888,127.0216293,37.52318421,02-567-5733
스타벅스,당산점,서울특별시,영등포구,서울특별시 영등포구 양평로 64,150810,126.899952,37.53513359,02-567-5734
스타벅스,청담점,서울특별시,강남구,서울특별시 강남구 도산대로 532,135952,127.0515717,37.52433852,02-567-5735
스타벅스,뉴코아강남점,서울특별시,서초구,서울특별시 서초구 잠원로 69,137908,127.006958,37.51024881,02-567-5736
스타벅스,발산역점,서울특별시,강서구,서울특별시 강서구 강서로 388,157930,126.8392902,37.5601783,02-567-5737
스타벅스,포이점,서울특별시,강남구,서울특별시 강남구 논현로 88,135240,127.0451163,37.47781003,02-567-5738
스타벅스,이태원입구점,서울특별시,용산구,서울특별시 용산구 이태원로 138-1,140200,126.9892412,37.53399435,02-567-5739
스타벅스,군자역점,서울특별시,광진구,서울특별시 광진구 천호대로 548,143838,127.0790129,37.5569305,02-567-5740
스타벅스,여의도의사당점,서울특별시,영등포구,서울특별시 영등포구 국회대로74길 12,150870,126.9210478,37.53007514,02-567-5741
스타벅스,학동역점,서울특별시,강남구,서울특별시 강남구 논현로 704,135010,127.0307455,37.51460026,02-567-5742
스타벅스,은행사거리점,서울특별시,노원구,서울특별시 노원구 중계로 217,139220,127.0759774,37.65049809,02-567-5743
스타벅스,사당역점,서울특별시,동작구,서울특별시 동작구 동작대로 21,156090,126.9813515,37.4784759,02-567-5744
스타벅스,포스코점,서울특별시,강남구,서울특별시 강남구 삼성로86길 7,135280,127.0579257,37.50576457,02-567-5745
스타벅스,마리오아울렛점,서울특별시,금천구,서울특별시 금천구 벚꽃로 266,153717,126.8850681,37.47843551,02-567-5746
스타벅스,고대점,서울특별시,성북구,서울특별시 성북구 인촌로24길 51,136075,127.029689,37.58391819,02-567-5747
스타벅스,노원역점,서울특별시,노원구,서울특별시 노원구 동일로 1413,139200,127.0600017,37.65475991,02-567-5748
스타벅스,서울시청점,서울특별시,중구,서울특별시 중구 을지로 19,100842,126.9799417,37.56629791,02-567-5749
스타벅스,상명아트홀점,서울특별시,종로구,서울특별시 종로구 동숭길 133,110809,127.0027155,37.58336,02-567-5750
스타벅스,지에스타워점,서울특별시,강남구,서울특별시 강남구 논현로 508,135080,127.0372774,37.50188574,02-567-5751
스타벅스,서소문점,서울특별시,중구,서울특별시 중구 서소문로 130,100814,126.9755101,37.56340323,02-567-5752
스타벅스,회기역사거리점,서울특별시,동대문구,서울특별시 동대문구 이문로 37,130881,127.0560164,37.59084445,02-567-5753
스타벅스,논현역점,서울특별시,서초구,서울특별시 서초구 강남대로 557,137905,127.0206276,37.51153431,02-567-5754
스타벅스,왕십리역점,서울특별시,성동구,서울특별시 성동구 왕십리로 326,133882,127.0338801,37.56274199,02-567-5755
스타벅스,동부이촌동점,서울특별시,용산구,서울특별시 용산구 이촌로 198,140030,126.9690527,37.52107002,02-567-5756
스타벅스,여의도한양증권점,서울특별시,영등포구,서울특별시 영등포구 국제금융로6길 7,150884,126.9290886,37.52239936,02-567-5757
스타벅스,교대점,서울특별시,서초구,서울특별시 서초구 서초중앙로 118,137070,127.014217,37.49238766,02-567-5758
스타벅스,선릉역점,서울특별시,강남구,서울특별시 강남구 테헤란로 334,135080,127.0485159,37.5039411,02-567-5759
스타벅스,서초중앙로점,서울특별시,서초구,서울특별시 서초구 서초중앙로 225,137040,127.0115392,37.50165515,02-567-5760
스타벅스,영등포점,서울특별시,영등포구,서울특별시 영등포구 영중로 15,150034,126.9039142,37.51721267,02-567-5761
스타벅스,서울극장점,서울특별시,종로구,서울특별시 종로구 돈화문로 13,110420,126.9916457,37.56968726,02-567-5762
스타벅스,종로관철점,서울특별시,종로구,서울특별시 종로구 종로12길 21,110111,126.9859827,37.5690711,02-567-5763
스타벅스,압구정역2점,서울특별시,강남구,서울특별시 강남구 논현로 841,135892,127.0278969,37.52404691,02-567-5764
스타벅스,천호이마트점,서울특별시,강동구,서울특별시 강동구 천호대로 1015-14,134020,127.1251976,37.5389633,02-567-5765
스타벅스,양재역점,서울특별시,서초구,서울특별시 서초구 강남대로 202,137130,127.0368501,37.48232032,02-567-5766
스타벅스,서소문로점,서울특별시,중구,서울특별시 중구 서소문로 120,100735,126.9746449,37.56293619,02-567-5767
스타벅스,서울역동자동점,서울특별시,용산구,서울특별시 용산구 한강대로 372,140170,126.9729093,37.55166709,02-567-5768
스타벅스,강남II점,서울특별시,서초구,서울특별시 서초구 서초대로77길 27,137070,127.0254816,37.50011306,02-567-5769
스타벅스,연대점,서울특별시,서대문구,서울특별시 서대문구 연세로 35,120834,126.9366956,37.55871702,02-567-5770
스타벅스,현대목동점,서울특별시,양천구,서울특별시 양천구 목동동로 257,158724,126.8746818,37.52714654,02-567-5771
스타벅스,여의도알리안츠점,서울특별시,영등포구,서울특별시 영등포구 의사당대로 147,150978,126.9278277,37.51881077,02-567-5772
스타벅스,이마트본사점,서울특별시,성동구,서울특별시 성동구 뚝섬로 377,133120,127.053479,37.53992399,02-567-5773
스타벅스,방배역점,서울특별시,서초구,서울특별시 서초구 방배로 84,137060,126.9976309,37.48198508,02-567-5774
스타벅스,이마빌딩점,서울특별시,종로구,서울특별시 종로구 종로1길 42,110755,126.9789664,37.57389426,02-567-5775
스타벅스,천호역점,서울특별시,강동구,서울특별시 강동구 천호대로 1012,134030,127.1241328,37.5380904,02-567-5776
스타벅스,갤러리아팰리스점,서울특별시,송파구,서울특별시 송파구 올림픽로 212,138791,127.0944673,37.51066377,02-567-5777
스타벅스,SKTTOWER점,서울특별시,중구,서울특별시 중구 을지로 65,100999,126.9851123,37.56647763,02-567-5778
스타벅스,경기대점,서울특별시,서대문구,서울특별시 서대문구 충정로 53,120722,126.9646165,37.5637407,02-567-5779
스타벅스,건대스타씨티점,서울특별시,광진구,서울특별시 광진구 아차산로 262,143730,127.0729442,37.53699681,02-567-5780
스타벅스,구의역점,서울특별시,광진구,서울특별시 광진구 아차산로 373,143200,127.0840104,37.53700208,02-567-5781
스타벅스,은평구청입구점,서울특별시,은평구,서울특별시 은평구 은평로 170,122010,126.9266481,37.6010829,02-567-5782
스타벅스,보라매대교점,서울특별시,관악구,서울특별시 관악구 보라매로3길 23,151706,126.9255222,37.49103758,02-567-5783
스타벅스,강남구점,서울특별시,강남구,서울특별시 강남구 강남대로78길 14,135080,127.0305366,37.49489249,02-567-5784
스타벅스,큰길타워점,서울특별시,강남구,서울특별시 강남구 테헤란로 223,135914,127.0406526,37.50239076,02-567-5785
스타벅스,종암점,서울특별시,성북구,서울특별시 성북구 종암로28길 40,136859,127.0342762,37.60130987,02-567-5786
스타벅스,가락본동점,서울특별시,송파구,서울특별시 송파구 송파대로30길 13,138160,127.1187684,37.49488077,02-567-5787
스타벅스,충무로역점,서울특별시,중구,서울특별시 중구 퇴계로 197,100272,126.9939076,37.56142598,02-567-5788
스타벅스,강남대로점,서울특별시,강남구,서울특별시 강남구 강남대로 456,135080,127.0255555,37.5031322,02-567-5789
스타벅스,상암MBC점,서울특별시,마포구,서울특별시 마포구 성암로 267,121904,126.8909658,37.5811105,02-567-5790
스타벅스,현대미아점,서울특별시,성북구,서울특별시 성북구 동소문로 315,136719,127.0287256,37.60839154,02-567-5791
스타벅스,역삼대로점,서울특별시,강남구,서울특별시 강남구 테헤란로 211,135080,127.0392228,37.50187455,02-567-5792
스타벅스,남부터미널점,서울특별시,서초구,서울특별시 서초구 서초중앙로 26,137918,127.0169304,37.4846702,02-567-5793
스타벅스,은평이마트점,서울특별시,은평구,서울특별시 은평구 은평로 111,122010,126.9204912,37.60081951,02-567-5794
스타벅스,영동2교점,서울특별시,서초구,서울특별시 서초구 논현로 139,137130,127.0425756,37.48198841,02-567-5795
스타벅스,압구정2점,서울특별시,강남구,서울특별시 강남구 압구정로42길 32,135896,127.0347168,37.52683303,02-567-5796
스타벅스,무교동점,서울특별시,중구,서울특별시 중구 무교로 19,100772,126.9789728,37.56762308,02-567-5797
스타벅스,사가정역점,서울특별시,중랑구,서울특별시 중랑구 면목로 310,131200,127.0879606,37.57962529,02-567-5798
스타벅스,올리브타워점,서울특별시,중구,서울특별시 중구 세종대로9길 41,100737,126.9729802,37.5613449,02-567-5799
스타벅스,태평로점,서울특별시,중구,서울특별시 중구 세종대로 72,100864,126.9767791,37.56248617,02-567-5800
스타벅스,신도림테크노마트점,서울특별시,구로구,서울특별시 구로구 새말로 97,152725,126.8902076,37.50703804,02-567-5801
스타벅스,기술센터점,서울특별시,강남구,서울특별시 강남구 테헤란로 305,135780,127.0437621,37.50333505,02-567-5802
스타벅스,쌍문역점,서울특별시,도봉구,서울특별시 도봉구 도봉로 480,132040,127.0348687,37.64834884,02-567-5803
스타벅스,망원역점,서울특별시,마포구,서울특별시 마포구 월드컵로 74,121896,126.9107064,37.55576797,02-567-5804
스타벅스,뉴코아반포점,서울특별시,서초구,서울특별시 서초구 잠원로 51,137711,127.0074239,37.50923454,02-567-5805
스타벅스,명동메트로점,서울특별시,중구,서울특별시 중구 명동9가길 14,100845,126.9837157,37.56512306,02-567-5806
스타벅스,평창점,서울특별시,종로구,서울특별시 종로구 평창문화로 51,110847,126.9667633,37.60579292,02-567-5807
스타벅스,새명동점,서울특별시,중구,서울특별시 중구 명동8나길 19,100011,126.9838724,37.56108774,02-567-5808
스타벅스,KBS동문점,서울특별시,영등포구,서울특별시 영등포구 국회대로62길 25,150874,126.9176966,37.52631416,02-567-5809
스타벅스,신세계강남점,서울특별시,서초구,서울특별시 서초구 신반포로 176,137726,127.0023932,37.50393001,02-567-5810
스타벅스,고대안암병원점,서울특별시,성북구,서울특별시 성북구 인촌로 73,136705,127.0263415,37.58709834,02-567-5811
스타벅스,명동MPLAZA점,서울특별시,중구,서울특별시 중구 명동8길 27,100809,126.9851546,37.56252242,02-567-5812
스타벅스,교대법원점,서울특별시,서초구,서울특별시 서초구 서초중앙로 164,137070,127.013362,37.49635417,02-567-5813
스타벅스,서울여대점,서울특별시,노원구,서울특별시 노원구 화랑로 621,139774,127.088969,37.62877599,02-567-5814
스타벅스,강남비젼타워점,서울특별시,강남구,서울특별시 강남구 테헤란로2길 27,135080,127.0296792,37.49648032,02-567-5815
스타벅스,순화동더샵점,서울특별시,중구,서울특별시 중구 칠패로 27,100130,126.9720218,37.56025531,02-567-5816
스타벅스,광교점,서울특별시,종로구,서울특별시 종로구 청계천로 59,110111,126.9841734,37.5689294,02-567-5817
스타벅스,신세계아이엔씨점,서울특별시,구로구,서울특별시 구로구 디지털로31길 61,152050,126.8915267,37.48590289,02-567-5818
스타벅스,당산역점,서울특별시,영등포구,서울특별시 영등포구 당산로 231,150809,126.901874,37.53446668,02-567-5819
스타벅스,마로니에공원점,서울특별시,종로구,서울특별시 종로구 대학로 116,110809,127.002321,37.58152755,02-567-5820
스타벅스,국민은행여의도점,서울특별시,영등포구,서울특별시 영등포구 국제금융로8길 26,150758,126.9278776,37.5208566,02-567-5821
스타벅스,도산가로수길점,서울특별시,강남구,서울특별시 강남구 도산대로 134,135010,127.0233685,37.51734176,02-567-5822
스타벅스,대우증권점,서울특별시,영등포구,서울특별시 영등포구 국제금융로 56,150716,126.9297009,37.52230579,02-567-5823
스타벅스,도심공항터미널점,서울특별시,강남구,서울특별시 강남구 테헤란로87길 22,135728,127.0594268,37.50962404,02-567-5824
스타벅스,광나루점,서울특별시,광진구,서울특별시 광진구 아차산로 607,143809,127.1060879,37.54730812,02-567-5825
스타벅스,동빙고점,서울특별시,용산구,서울특별시 용산구 장문로 12,140809,126.9917868,37.52897024,02-567-5826
스타벅스,길동역점,서울특별시,강동구,서울특별시 강동구 양재대로 1487,134813,127.1400238,37.53871178,02-567-5827
스타벅스,구역삼세무서점,서울특별시,강남구,서울특별시 강남구 논현로 401,135080,127.0388807,37.49591579,02-567-5828
스타벅스,구로호텔점,서울특별시,구로구,서울특별시 구로구 디지털로32길 72,152050,126.8988373,37.48317801,02-567-5829
스타벅스,강남GT타워점,서울특별시,서초구,서울특별시 서초구 서초대로 411,137070,127.0259036,37.49809817,02-567-5830
스타벅스,삼성2점,서울특별시,강남구,서울특별시 강남구 테헤란로104길 9,135280,127.065231,37.50858885,02-567-5831
스타벅스,건대입구점,서울특별시,광진구,서울특별시 광진구 능동로 107,143914,127.0707145,37.54069162,02-567-5832
스타벅스,롯데캐슬여의도점,서울특별시,영등포구,서울특별시 영등포구 의사당대로 127,150936,126.9261637,37.52046259,02-567-5833
스타벅스,신세계도곡점,서울특별시,강남구,서울특별시 강남구 언주로30길 57,135270,127.0541634,37.48929922,02-567-5834
스타벅스,반포역점,서울특별시,서초구,서울특별시 서초구 나루터로4길 61,137797,127.013448,37.50958236,02-567-5835
스타벅스,타임스퀘어B2점,서울특별시,영등포구,서울특별시 영등포구 영중로 15,150034,126.9039142,37.51721267,02-567-5836
스타벅스,이태원입구점,서울특별시,용산구,서울특별시 용산구 이태원로 140-1,140200,126.9894227,37.53395986,02-567-5837
스타벅스,영등포본동점,서울특별시,영등포구,서울특별시 영등포구 영등포로 254,150033,126.909583,37.51867077,02-567-5838
스타벅스,오류동역점,서울특별시,구로구,서울특별시 구로구 경인로 216,152100,126.8448498,37.49620515,02-567-5839
스타벅스,숭례문점,서울특별시,중구,서울특별시 중구 세종대로 17,100998,126.9732441,37.55861704,02-567-5840
스타벅스,써머셋팰리스,서울특별시,종로구,서울특별시 종로구 율곡로2길 7,110885,126.9812267,37.57500405,02-567-5841
스타벅스,명동5점,서울특별시,중구,서울특별시 중구 명동8가길 3-1,100861,126.9852338,37.56169414,02-567-5842
스타벅스,안국점,서울특별시,종로구,서울특별시 종로구 북촌로 5-1,110250,126.9856325,37.57736668,02-567-5843
스타벅스,도곡역점,서울특별시,강남구,서울특별시 강남구 남부순환로 2909,135280,127.0573953,37.4921724,02-567-5844
스타벅스,삼성점,서울특별시,강남구,서울특별시 강남구 테헤란로 443,135090,127.0555809,37.50694425,02-567-5845
스타벅스,종로YBM점,서울특별시,종로구,서울특별시 종로구 삼일대로 394,110122,126.9880113,37.56973726,02-567-5846
스타벅스,역삼점,서울특별시,강남구,서울특별시 강남구 테헤란로 203,135977,127.0377338,37.50157409,02-567-5847
스타벅스,가산그레이트점,서울특별시,금천구,서울특별시 금천구 디지털로9길 32,153709,126.8872665,37.4796276,02-567-5848
스타벅스,건대병원점,서울특별시,광진구,서울특별시 광진구 능동로 120-1,143729,127.0720432,37.54122468,02-567-5849
스타벅스,경기빌딩점,서울특별시,중구,서울특별시 중구 남대문로10길 6,100210,126.9832279,37.56686688,02-567-5850
스타벅스,홍대역점,서울특별시,마포구,서울특별시 마포구 양화로 165,121756,126.9235995,37.55720174,02-567-5851
스타벅스,랜드마크점,서울특별시,강남구,서울특별시 강남구 강남대로 308,135080,127.0318013,37.49065888,02-567-5852
스타벅스,IFC몰점,서울특별시,영등포구,서울특별시 영등포구 국제금융로 10,150945,126.9248631,37.52517222,02-567-5853
스타벅스,광나루역점,서울특별시,광진구,서울특별시 광진구 아차산로 563,143813,127.102912,37.54413034,02-567-5854
스타벅스,제일은행본점,서울특별시,종로구,서울특별시 종로구 종로 47,110702,126.9824231,37.57111286,02-567-5855
스타벅스,경복궁역점,서울특별시,종로구,서울특별시 종로구 자하문로4길 6,110040,126.9726157,37.57717301,02-567-5856
스타벅스,역삼이마트점,서울특별시,강남구,서울특별시 강남구 역삼로 310,135080,127.0484061,37.49922769,02-567-5857
스타벅스,삼성서울병원점,서울특별시,강남구,서울특별시 강남구 일원로 81,135710,127.0895788,37.49033434,02-567-5858
스타벅스,포스코사거리점,서울특별시,강남구,서울특별시 강남구 삼성로 518,135974,127.056219,37.50836401,02-567-5859
스타벅스,선릉점,서울특별시,강남구,서울특별시 강남구 테헤란로64길 18,135280,127.0511761,37.50376427,02-567-5860
스타벅스,목동7단지점,서울특별시,양천구,서울특별시 양천구 목동서로 213,158717,126.8705959,37.52800858,02-567-5861
스타벅스,이대점,서울특별시,서대문구,서울특별시 서대문구 이화여대길 34,120808,126.945924,37.55843936,02-567-5862
스타벅스,상수역점,서울특별시,마포구,서울특별시 마포구 독막로 88,121829,126.9232071,37.54750297,02-567-5863
스타벅스,코엑스2점,서울특별시,강남구,서울특별시 강남구 영동대로 513,135798,127.0591391,37.51182033,02-567-5864
스타벅스,삼성역점,서울특별시,강남구,서울특별시 강남구 영동대로96길 8,135090,127.063193,37.51056404,02-567-5865
스타벅스,신월ICDT점,서울특별시,양천구,서울특별시 양천구 남부순환로 430,158090,126.8321965,37.52951826,02-567-5866
스타벅스,자양사거리점,서울특별시,광진구,서울특별시 광진구 아차산로 355,143190,127.0825464,37.53736014,02-567-5867
스타벅스,홍대공원점,서울특별시,마포구,서울특별시 마포구 와우산로 83,121837,126.9232454,37.55191842,02-567-5868
스타벅스,을지병원사거리점,서울특별시,강남구,서울특별시 강남구 논현로 752,135010,127.0286278,37.5191512,02-567-5869
스타벅스,조선호텔후문점,서울특별시,중구,서울특별시 중구 남대문로7길 19,100070,126.9807573,37.56376402,02-567-5870
스타벅스,대학로점,서울특별시,종로구,서울특별시 종로구 대학로 122,110809,127.002233,37.58218456,02-567-5871
스타벅스,강남점,서울특별시,강남구,서울특별시 강남구 강남대로 408,135080,127.0275177,37.49921076,02-567-5872
스타벅스,한티점,서울특별시,강남구,서울특별시 강남구 선릉로64길 18,135280,127.0537151,37.49794579,02-567-5873
스타벅스,양평동점,서울특별시,영등포구,서울특별시 영등포구 선유동2로 57,150967,126.8968599,37.53381625,02-567-5874
스타벅스,청담역점,서울특별시,강남구,서울특별시 강남구 삼성로 646,135090,127.051147,37.51767632,02-567-5875
스타벅스,오목교사거리점,서울특별시,양천구,서울특별시 양천구 오목로 350,158050,126.8762541,37.52414303,02-567-5876
스타벅스,중랑중랑점,서울특별시,중랑구,서울특별시 중랑구 상봉로 131,131220,127.0925055,37.59787046,02-567-5877
스타벅스,선유도역점,서울특별시,영등포구,서울특별시 영등포구 양평로 115,150867,126.8945908,37.53730008,02-567-5878
스타벅스,한국프레스센터점,서울특별시,중구,서울특별시 중구 세종대로 124,100745,126.9778549,37.56741517,02-567-5879
스타벅스,여의도역점,서울특별시,영등포구,서울특별시 영등포구 의사당대로 83,150724,126.9234298,37.52335708,02-567-5880
스타벅스,서울타워점,서울특별시,용산구,서울특별시 용산구 남산공원길 105,140833,126.9878557,37.55111136,02-567-5881
스타벅스,방배점,서울특별시,서초구,서울특별시 서초구 방배로 211,137060,126.9905093,37.49194417,02-567-5882
스타벅스,국민은행명동점,서울특별시,중구,서울특별시 중구 남대문로 84,100845,126.9828281,37.56463787,02-567-5883
스타벅스,문정로데오점,서울특별시,송파구,서울특별시 송파구 동남로 141,138160,127.126233,37.49189964,02-567-5884
스타벅스,남산스테이트점,서울특별시,중구,서울특별시 중구 퇴계로 100,100052,126.9829111,37.56019644,02-567-5885
스타벅스,논현힐탑점,서울특별시,강남구,서울특별시 강남구 논현로 648,135010,127.032255,37.5115851,02-567-5886
스타벅스,명동미래점,서울특별시,중구,서울특별시 중구 명동7길 8,100021,126.9845324,37.56416598,02-567-5887
스타벅스,여의도호성점,서울특별시,영등포구,서울특별시 영등포구 여의대방로65길 24,150890,126.9292751,37.52043677,02-567-5888
스타벅스,현대디큐브B2점,서울특별시,구로구,서울특별시 구로구 경인로 662,152706,126.8884846,37.50805804,02-567-5889
스타벅스,천호이마트점,서울특별시,강동구,서울특별시 강동구 천호대로 1017,134783,127.1251325,37.53871953,02-567-5890
스타벅스,명동중앙로점,서울특별시,중구,서울특별시 중구 명동길 60,100809,126.9857377,37.56376186,02-567-5891
스타벅스,반포역점,서울특별시,서초구,서울특별시 서초구 신반포로 257,137797,127.0119225,37.50861449,02-567-5892
스타벅스,중앙대점,서울특별시,동작구,서울특별시 동작구 흑석로 75-1,156861,126.9581289,37.50693583,02-567-5893
스타벅스,국회의사당역점,서울특별시,영등포구,서울특별시 영등포구 의사당대로 8,150874,126.9168822,37.5278655,02-567-5894
스타벅스,미아뉴타운점,서울특별시,강북구,서울특별시 강북구 삼양로 161,142150,127.0211081,37.61838418,02-567-5895
스타벅스,목동오목로점,서울특별시,양천구,서울특별시 양천구 오목로 279,158050,126.8683761,37.52591494,02-567-5896
스타벅스,신당역사거리점,서울특별시,중구,서울특별시 중구 다산로 258,100879,127.0164407,37.56594086,02-567-5897
스타벅스,연세세브란스점,서울특별시,중구,서울특별시 중구 통일로 10,100753,126.9736159,37.5570885,02-567-5898
스타벅스,송파방이DT점,서울특별시,송파구,서울특별시 송파구 오금로 241,138836,127.1205658,37.50650884,02-567-5899
스타벅스,영등포KT점,서울특별시,영등포구,서울특별시 영등포구 영중로 119,150030,126.9050191,37.52675594,02-567-5900
스타벅스,목동8단지점,서울특별시,양천구,서울특별시 양천구 목동서로 299,158885,126.868819,37.520558,02-567-5901
스타벅스,방배카페골목점,서울특별시,서초구,서울특별시 서초구 방배중앙로 162,137829,126.9865526,37.49352318,02-567-5902
스타벅스,청담스타점,서울특별시,강남구,서울특별시 강남구 도산대로57길 24,135954,127.0418193,37.52525095,02-567-5903
스타벅스,이촌역점,서울특별시,용산구,서울특별시 용산구 서빙고로 67,140762,126.9703921,37.52485709,02-567-5904
스타벅스,서강대흥역점,서울특별시,마포구,서울특별시 마포구 백범로 89,121809,126.9415521,37.54825452,02-567-5905
스타벅스,연희동점,서울특별시,서대문구,서울특별시 서대문구 연희로 97,120825,126.9305022,37.56679745,02-567-5906
스타벅스,동대문점,서울특별시,중구,서울특별시 중구 장충단로 229,100411,127.0071916,37.56516063,02-567-5907
스타벅스,답십리역점,서울특별시,동대문구,서울특별시 동대문구 천호대로 263,130805,127.0511027,37.56849519,02-567-5908
스타벅스,강남대로논현점,서울특별시,서초구,서울특별시 서초구 강남대로85길 5,137810,127.0225824,37.50736061,02-567-5909
스타벅스,화곡DT점,서울특별시,강서구,서울특별시 강서구 등촌로 57,157896,126.8631698,37.53500146,02-567-5910
스타벅스,마포염리점,서울특별시,마포구,서울특별시 마포구 독막로 311,121749,126.9474628,37.54399137,02-567-5911
스타벅스,여의도공원점,서울특별시,영등포구,서울특별시 영등포구 여의공원로 101,150968,126.9248723,37.52926304,02-567-5912
스타벅스,동대입구역점,서울특별시,중구,서울특별시 중구 장충단로 166,100391,127.0061331,37.55963733,02-567-5913
스타벅스,남영동점,서울특별시,용산구,서울특별시 용산구 한강대로 275,140807,126.9722381,37.54285805,02-567-5914
스타벅스,성수역점,서울특별시,성동구,서울특별시 성동구 성수이로 94,133835,127.0569453,37.54322254,02-567-5915
스타벅스,국회대로점,서울특별시,영등포구,서울특별시 영등포구 국회대로 786,150871,126.9195743,37.5302599,02-567-5916
스타벅스,강남구청정문점,서울특별시,강남구,서울특별시 강남구 학동로 419,135951,127.045958,37.5183013,02-567-5917
스타벅스,가양역점,서울특별시,강서구,서울특별시 강서구 양천로 476,157033,126.8532583,37.56158526,02-567-5918
스타벅스,홍제역점,서울특별시,서대문구,서울특별시 서대문구 통일로 451,120091,126.9438335,37.5886595,02-567-5919
스타벅스,연신내점,서울특별시,은평구,서울특별시 은평구 통일로 867,122808,126.9198822,37.62022213,02-567-5920
스타벅스,서울고속터미널점,서울특별시,서초구,서울특별시 서초구 신반포로 194,137713,127.0068163,37.50642716,02-567-5921
스타벅스,을지로내외빌딩점,서울특별시,중구,서울특별시 중구 을지로 51,100787,126.9836633,37.56648318,02-567-5922
스타벅스,연신내점,서울특별시,은평구,서울특별시 은평구 통일로 869,122808,126.9197896,37.62035644,02-567-5923
스타벅스,금천시흥점,서울특별시,금천구,서울특별시 금천구 시흥대로 164,153858,126.9032169,37.4488707,02-567-5924
스타벅스,잠실대교남단점,서울특별시,송파구,서울특별시 송파구 송파대로 570,138934,127.098885,37.51577952,02-567-5925
스타벅스,독산사거리점,서울특별시,금천구,서울특별시 금천구 시흥대로 426,153807,126.8986457,37.47157973,02-567-5926
스타벅스,강남대로신사점,서울특별시,서초구,서울특별시 서초구 강남대로 595,137903,127.019521,37.51485002,02-567-5927
스타벅스,대우재단빌딩점,서울특별시,중구,서울특별시 중구 퇴계로 18,100740,126.9751399,37.5565521,02-567-5928
스타벅스,미아점,서울특별시,성북구,서울특별시 성북구 동소문로 314,136873,127.029302,37.60761238,02-567-5929
스타벅스,마곡GMG점,서울특별시,강서구,서울특별시 강서구 마곡중앙6로 16,157805,126.828987,37.56039191,02-567-5930
스타벅스,목동역점,서울특별시,양천구,서울특별시 양천구 목동로 203,158857,126.8637936,37.52669989,02-567-5931
스타벅스,을지로국제빌딩점,서울특별시,중구,서울특별시 중구 남대문로 109,100180,126.9822303,37.56697542,02-567-5932
스타벅스,이촌점,서울특별시,용산구,서울특별시 용산구 이촌로 276,140853,126.977265,37.5186365,02-567-5933
스타벅스,올림픽대교북단점,서울특별시,광진구,서울특별시 광진구 광나루로 608,143821,127.0952529,37.5411525,02-567-5934
스타벅스,신림DT점,서울특별시,관악구,서울특별시 관악구 남부순환로 1419,151877,126.9084012,37.48096909,02-567-5935
스타벅스,마포경찰서후문,서울특별시,마포구,서울특별시 마포구 마포대로 173-14,121862,126.9535888,37.55099285,02-567-5936
스타벅스,뚝섬역점,서울특별시,성동구,서울특별시 성동구 아차산로 42,133822,127.0490964,37.54643942,02-567-5937
스타벅스,신촌역점,서울특별시,서대문구,서울특별시 서대문구 신촌로 73,120834,126.9345003,37.55630046,02-567-5938
스타벅스,신용산역점,서울특별시,용산구,서울특별시 용산구 한강대로 95,140871,126.9664013,37.5287598,02-567-5939
스타벅스,홍대공항철도역점,서울특별시,마포구,서울특별시 마포구 양화로 178,121818,126.9251911,37.55749556,02-567-5940
스타벅스,송파개롱역점,서울특별시,송파구,서울특별시 송파구 마천로7길 14,138855,127.1281717,37.50898908,02-567-5941
스타벅스,가산브이타워,서울특별시,금천구,서울특별시 금천구 가산디지털1로 128,153795,126.8836842,37.47722405,02-567-5942
스타벅스,이촌역점,서울특별시,용산구,서울특별시 용산구 서빙고로 69,140025,126.9723312,37.52370262,02-567-5943
스타벅스,미스타,서울특별시,서초구,서울특별시 서초구 언남10길 10,137896,127.0441064,37.47365699,02-567-5944
스타벅스,연신내역사거리점,서울특별시,은평구,서울특별시 은평구 통일로 842,122756,126.9220454,37.61868313,02-567-5945
스타벅스,방화DT점,서울특별시,강서구,서울특별시 강서구 방화대로 375,157847,126.816371,37.57443928,02-567-5946
스타벅스,서초우성사거리점,서울특별시,서초구,서울특별시 서초구 강남대로 343,137858,127.0292201,37.49351207,02-567-5947
스타벅스,압구정신원빌딩R점,서울특별시,강남구,서울특별시 강남구 언주로 861,135894,127.0330918,37.5273874,02-567-5948
스타벅스,문정점,서울특별시,송파구,서울특별시 송파구 송파대로 180,138826,127.1230757,37.48628966,02-567-5949
스타벅스,강남교보타워R점,서울특별시,서초구,서울특별시 서초구 강남대로 465,137920,127.0240884,37.50375083,02-567-5950
스타벅스,광화문우체국점,서울특별시,종로구,서울특별시 종로구 종로 6,110110,126.9780823,37.56983193,02-567-5951
스타벅스,가산에스케이점,서울특별시,금천구,서울특별시 금천구 가산디지털1로 171,153803,126.8803985,37.48148195,02-567-5952
스타벅스,독립문역점,서울특별시,종로구,서울특별시 종로구 송월길 155,110100,126.9613715,37.57163234,02-567-5953
스타벅스,문정법원로R점,서울특별시,송파구,서울특별시 송파구 송파대로 201,138888,127.1205807,37.48788401,02-567-5954
스타벅스,양재강남빌딩R점,서울특별시,강남구,서울특별시 강남구 남부순환로 2621,135860,127.036609,37.48524679,02-567-5955
스타벅스,마곡사이언스타워R점,서울특별시,강서구,서울특별시 강서구 마곡동로 62,157805,126.8338743,37.5605394,02-567-5956
스타벅스,홍대입구역사거리,서울특별시,마포구,서울특별시 마포구 양화로 125,121838,126.9202961,37.55473877,02-567-5957
스타벅스,서초구청점,서울특별시,서초구,서울특별시 서초구 남부순환로 2557,137863,127.03005,37.48442722,02-567-5958
스타벅스,구파발사거리,서울특별시,은평구,서울특별시 은평구 진관3로 21,122200,126.9191031,37.63960511,02-567-5959
스타벅스,한강진역점,서울특별시,용산구,서울특별시 용산구 이태원로 252,140892,127.0011028,37.53710478,02-567-5960
스타벅스,봉은사로선정릉점,서울특별시,강남구,서울특별시 강남구 봉은사로 446,135509,127.048501,37.51135667,02-567-5961
스타벅스,방배다이치빌딩점,서울특별시,서초구,서울특별시 서초구 방배로 114,137842,126.9960731,37.48433262,02-567-5962
스타벅스,여의도화재보험,서울특별시,영등포구,서울특별시 영등포구 국제금융로6길 38,150885,126.9259809,37.52137999,02-567-5963
스타벅스,송파개롱역점,서울특별시,송파구,서울특별시 송파구 오금로 420,138811,127.1362616,37.4969833,02-567-5964
스타벅스,용산역써밋R점,서울특별시,용산구,서울특별시 용산구 한강대로 69,140876,126.9652201,37.52745195,02-567-5965
스타벅스,삼성역섬유센터R점,서울특별시,강남구,서울특별시 강남구 테헤란로 518,135713,127.0605609,37.50757866,02-567-5966
스타벅스,착한빵,서울특별시,중구,서울특별시 중구 동호로7길 31,100840,127.0108813,37.55235171,02-567-5967
스타벅스,미스리,서울특별시,금천구,서울특별시 금천구 가산디지털2로 53,153706,126.881125,37.4729469,02-567-5968
스타벅스,등촌역점,서울특별시,양천구,서울특별시 양천구 공항대로 566,158811,126.8680505,37.54895134,02-567-5969
스타벅스,이수자이점,서울특별시,동작구,서울특별시 동작구 사당로 300,156793,126.9809089,37.48442805,02-567-5970
스타벅스,미스리,서울특별시,종로구,서울특별시 종로구 북촌로5가길 27,110230,126.9816593,37.5806483,02-567-5971
스타벅스,대치대원빌딩R점,서울특별시,강남구,서울특별시 강남구 남부순환로 2947,135835,127.0626465,37.49456594,02-567-5972
스타벅스,서대문점,서울특별시,서대문구,서울특별시 서대문구 증가로29길 20-14,120814,126.9118591,37.58234114,02-567-5973